Municipality,Place Name,Longitude,Latitude,Historical Information,Url,Categories,Suburb
Hobsons Bay City,Truganina Parish,144.7848611,-37.8501389,"Traditional Name: Truganina Explanation: personal name of a Tasmanian woman Discussion on Current Name: farming district 13 km from Werribee; n after supposed 'last' ofthe Tasmanian people, aka Lalla Rookh; Blake 1977: 260.",http://www.vaclang.org.au,"['Hobsons Bay City', 'Altona', 'Worship', 'Parish', 'Christian']",Altona
Mornington Peninsula Shire,Balnarring Parish,145.0698611,-38.3815278,"Traditional Name: Balnarring Explanation: N/A Discussion on Current Name: Blake (1977:32) suggests a European origin of the name: Ballymerang, Irish Bally, 'land belonging to',  Gardner 1996: 27.",http://www.vaclang.org.au,"['Mornington Peninsula Shire', 'Red Hill South', 'Worship', 'Parish', 'Christian']",Red Hill South
Mornington Peninsula Shire,Bittern Parish,145.1545833,-38.33430560000001,'So called from a bird of that name.',,"['Mornington Peninsula Shire', 'Balnarring', 'Worship', 'Parish', 'Christian']",Balnarring
Mornington Peninsula Shire,Fingal Parish,144.9054167,-38.4445833,,,"['Mornington Peninsula Shire', 'Boneo', 'Worship', 'Parish', 'Christian']",Boneo
Mornington Peninsula Shire,Flinders Parish,144.99819440000002,-38.445138899999996,Named after explorer and navigator Matthew Flinders who sailed into Port Phillip on the 'Investigator' in April 1802.,,"['Mornington Peninsula Shire', 'Flinders', 'Worship', 'Parish', 'Christian']",Flinders
Mornington Peninsula Shire,Kangerong Parish,145.01958330000002,-38.3373611,Reputedly based on an Aboriginal word for small hailstones.,,"['Mornington Peninsula Shire', 'Dromana', 'Worship', 'Parish', 'Christian']",Dromana
Mornington Peninsula Shire,Moorooduc Parish,145.0893056,-38.2448611,"Traditional Name: Moorooduc Explanation: N/A Discussion on Current Name: township S of Frankston,  surveyor Permein recorded n 1854,  Massola 1968: 35.",http://www.vaclang.org.au,"['Mornington Peninsula Shire', 'Moorooduc', 'Worship', 'Parish', 'Christian']",Moorooduc
Mornington Peninsula Shire,Nepean Parish,144.7670833,-38.3590278,,,"['Mornington Peninsula Shire', 'Blairgowrie', 'Worship', 'Parish', 'Christian']",Blairgowrie
Mornington Peninsula Shire,Tyabb Parish,145.2104167,-38.252083299999995,"Traditional Name: Tyab Explanation: N/A Discussion on Current Name: Township; Parish, Co ofMornington; Thomas map 1840.",http://www.vaclang.org.au,"['Mornington Peninsula Shire', 'Tyabb', 'Worship', 'Parish', 'Christian']",Tyabb
Mornington Peninsula Shire,Wannaeue Parish,144.9276389,-38.3854167,,,"['Mornington Peninsula Shire', 'Rosebud', 'Worship', 'Parish', 'Christian']",Rosebud
Casey City,Berwick Parish,145.3354167,-38.02875,"Traditional Name: Narmnup Explanation: N/A Discussion on Current Name: n of Terence O'Connor's homestation 'Cardinia Creek',  Thomas map 1840.",http://www.vaclang.org.au,"['Casey City', 'Berwick', 'Worship', 'Parish', 'Christian']",Berwick
Casey City,Cranbourne Parish,145.34625,-38.108194399999995,"'Named after Cranbourne, Berkshire, England.'",,"['Casey City', 'Clyde North', 'Worship', 'Parish', 'Christian']",Clyde North
Casey City,Langwarrin Parish,145.22402780000002,-38.1640278,"Traditional Name: Langwarrin Explanation: N/A Discussion on Current Name: township E of Frankston,  Parish, Co of Mornington,  in 1843 Longwaring occupied by W Willoby,  Moorhead 1971: 46.",http://www.vaclang.org.au,"['Casey City', 'Cranbourne South', 'Worship', 'Parish', 'Christian']",Cranbourne South
Maribyrnong City,Cut-Paw-Paw Parish,144.8745833,-37.80875,,,"['Maribyrnong City', 'Kingsville', 'Worship', 'Parish', 'Christian']",Kingsville
Maroondah City,Ringwood Parish,145.2606944,-37.8159722,"'Named after a town in Hampshire, on Avon.'",,"['Maroondah City', 'Ringwood East', 'Worship', 'Parish', 'Christian']",Ringwood East
Moonee Valley City,Doutta Galla Parish,144.9081944,-37.74875,"Traditional Name: Duttigalla Explanation: personal name Discussion on Current Name: early n for Melbourne settlement,  conferred on district of settlement by Batman in VDL after n of Jika Jika's wife,  n occurs as Parish name, state school, hotel etc,  Cooper 1912: 4.",http://www.vaclang.org.au,"['Moonee Valley City', 'Essendon', 'Worship', 'Parish', 'Christian']",Essendon
Darebin City,Jika Jika Parish,144.9909722,-37.7504167,"Traditional Name: Jika Jika Explanation: personal name Discussion on Current Name: Batman wrote Jaga Jaga as n of Woiwurrung ngurungaeta, or chief, in 1835 ""deed"". E Preston known as J. J. until 1876,  Langhorne to Gurner 1817-1873.",http://www.vaclang.org.au,"['Darebin City', 'Preston', 'Worship', 'Parish', 'Christian']",Preston
Darebin City,Keelbundora Parish,145.0623611,-37.7145833,"Traditional Name: Keelbundoora Explanation: personal name Discussion on Current Name: According to George Langhorne (in Gurner Papers), the parishes of Jika Jika and Keelbundora were n after two men,  Langhorne to Gurner 1817-1873.",http://www.vaclang.org.au,"['Darebin City', 'Macleod', 'Worship', 'Parish', 'Christian']",Macleod
Yarra Ranges Shire,Beenak Parish,145.7040278,-37.86125,"Traditional Name: Binak Explanation: basket Discussion on Current Name: rural locality NE of Gembrook on Falls Creek, also Mt Beenak,  Berwick-Pakenham HS 1982: 50,  Blake 1991.",http://www.vaclang.org.au,"['Yarra Ranges Shire', 'Gladysdale', 'Worship', 'Parish', 'Christian']",Gladysdale
Yarra Ranges Shire,Brimbonga Parish,145.8968056,-37.7434722,,,"['Yarra Ranges Shire', 'McMahons Creek', 'Worship', 'Parish', 'Christian']",McMahons Creek
Yarra Ranges Shire,Burgoyne Parish,145.38763889999998,-37.614861100000006,,,"['Yarra Ranges Shire', 'Steels Creek', 'Worship', 'Parish', 'Christian']",Steels Creek
Yarra Ranges Shire,Coornburt Parish,146.0426389,-37.696805600000005,"Parish around Armstrong Creek* and much of the Upper Yarra River*. Includes Cumberland Creek (2) and the Corra Linn Falls. The northern boundary of Coornburt is the ridge of the Great Dividing Range, so it includes parts of the Cumberland Scenic Reserve south of the ridge. Coornburt is separated from Manango to its west by a line running south from Mount Arnold along the divide between the O'Shannessy* and Armstrong* catchments. Aboriginal (Woiworung or Bunurong): chain, necklace, ornaments worn round neck (Bunce; Smyth, 1878); ""chain"" (Saxton); ""to tie up"" (Les Blake; Massola, 1968). Barry Blake lists gurn-bat, necklace. ",,"['Yarra Ranges Shire', 'McMahons Creek', 'Worship', 'Parish', 'Christian']",McMahons Creek
Yarra Ranges Shire,Glenwatts Parish,145.64652780000003,-37.6543056,"Parish around Mount Juliet and the upper reaches of the Watts River. Glen (Gaelic gleann, valley) and Watts (River).",,"['Yarra Ranges Shire', 'Wesburn', 'Worship', 'Parish', 'Christian']",Wesburn
Yarra Ranges Shire,Gracedale Parish,145.55375,-37.7026389,"Parish including Healesville and Coranderrk. Saxton, followed by Les Blake, says it was named after Dr. Grace Vale (practising Ballarat*, 1890s); if so, it must have been named when she was an infant, because the name was in use by 1865. Grace's father, William Vale, was a Victorian M.P. (1864-65, 1865-69) and vice-president of the Board of Land and Works, 1866-68. See also Grace Burn.",,"['Yarra Ranges Shire', 'Badger Creek', 'Worship', 'Parish', 'Christian']",Badger Creek
Yarra Ranges Shire,Gruyere Parish,145.46597219999998,-37.7168056,,,"['Yarra Ranges Shire', 'Gruyere', 'Worship', 'Parish', 'Christian']",Gruyere
Yarra Ranges Shire,Manango Parish,145.84430559999998,-37.615694399999995,"Parish (west of Coornburt, q.v.) including the O'Shannassy River* catchment. Its northern boundary is the ridge of the Great Dividing Range, so it includes Bellell Creek and a section of the Marysville Woods Point Road south-west of Mount Arnold. Aboriginal: hand (Les Blake). Barry Blake lists Woiworung marnang, marnong, hand. See also Ligar.",,"['Yarra Ranges Shire', 'McMahons Creek', 'Worship', 'Parish', 'Christian']",McMahons Creek
Yarra Ranges Shire,Monbulk Parish,145.4004167,-37.870972200000004,"Traditional Name: Munbulluk Explanation: bulluk = lake Discussion on Current Name: also Monbulk Ck,  Clow 4/8/1853 in Bride 1983: 110.",http://www.vaclang.org.au,"['Yarra Ranges Shire', 'Monbulk', 'Worship', 'Parish', 'Christian']",Monbulk
Yarra Ranges Shire,Monda Parish,145.56680559999998,-37.611805600000004,"Parish, south of Mount Monda (q.v.) and Mount St. Leonard around the Maroondah Reservoir.",,"['Yarra Ranges Shire', 'Healesville', 'Worship', 'Parish', 'Christian']",Healesville
Yarra Ranges Shire,Mooroolbark Parish,145.3451389,-37.800972200000004,"Traditional Name: Mooroolbik Explanation: red earth country Discussion on Current Name: in 1837 n of pastoral run,  suburb of greater Melbourne,  Robinson jnl, 30/8/1840,  Blake Papers 2000.",http://www.vaclang.org.au,"['Yarra Ranges Shire', 'Montrose', 'Worship', 'Parish', 'Christian']",Montrose
Yarra Ranges Shire,Narree Worran Parish,145.3293056,-37.9440278,,,"['Yarra Ranges Shire', 'Belgrave Heights', 'Worship', 'Parish', 'Christian']",Belgrave Heights
Yarra Ranges Shire,St. Clair Parish,146.11569440000002,-37.580138899999994,,,"['Yarra Ranges Shire', 'McMahons Creek', 'Worship', 'Parish', 'Christian']",McMahons Creek
Yarra Ranges Shire,Tarrawarra Parish,145.4554167,-37.636527799999996,Traditional name: Tarra.  'Thigh'.,,"['Yarra Ranges Shire', 'Healesville', 'Worship', 'Parish', 'Christian']",Healesville
Yarra Ranges Shire,Tarrawarra North Parish,145.46569440000002,-37.56736110000001,Traditional name: Tarra.  'Thigh'.,,"['Yarra Ranges Shire', 'Dixons Creek', 'Worship', 'Parish', 'Christian']",Dixons Creek
Yarra Ranges Shire,Wandin Yallock Parish,145.4529167,-37.803194399999995,Traditional name: Wandin Yalloak.  'means running creek or rivulet.',,"['Yarra Ranges Shire', 'Wandin East', 'Worship', 'Parish', 'Christian']",Wandin East
Yarra Ranges Shire,Warburton Parish,145.7226389,-37.7820833,,,"['Yarra Ranges Shire', 'Warburton', 'Worship', 'Parish', 'Christian']",Warburton
Yarra Ranges Shire,Woori Yallock Parish,145.5765278,-37.8101389,,,"['Yarra Ranges Shire', 'Woori Yallock', 'Worship', 'Parish', 'Christian']",Woori Yallock
Yarra Ranges Shire,Yering Parish,145.37430559999999,-37.717361100000005,"Traditional meaning: 'Yerrang' (erroneously called 'Yering'), scrubby.  The flats of the Yarra were once covered with scrub.'  'Yerring: 'beard.'",,"['Yarra Ranges Shire', 'Coldstream', 'Worship', 'Parish', 'Christian']",Coldstream
Yarra Ranges Shire,Youarrabuk Parish,146.0351389,-37.5840278,"Parish, south-western Big River basin (west of St. Clair parish); includes Boundary Creek (1), Little Creek and Shaws Creek, and the confluence of Oaks and Springs Creeks to form the Big River. Aboriginal (Woiworung or Bunurong): accelerate, eagerly, keenly, haste, quickly (Bunce; Smyth, 1878); accelerate (Saxton); accelerate, faster (Massola, 1968).",,"['Yarra Ranges Shire', 'McMahons Creek', 'Worship', 'Parish', 'Christian']",McMahons Creek
Yarra Ranges Shire,Yuonga Parish,145.6804167,-37.727638899999995,,,"['Yarra Ranges Shire', 'Wesburn', 'Worship', 'Parish', 'Christian']",Wesburn
Frankston City,Frankston Parish,145.1451389,-38.1701389,'Named in 1854 after Charles Franks',,"['Frankston City', 'Frankston South', 'Worship', 'Parish', 'Christian']",Frankston South
Frankston City,Lyndhurst Parish,145.2065278,-38.08375,"'Named after Lord Lyndhurst, Lord Chancellor of England.'",,"['Frankston City', 'Sandhurst', 'Worship', 'Parish', 'Christian']",Sandhurst
Whitehorse City,Nunawading Parish,145.1648611,-37.8279167,"Traditional Name: Nunawading Explanation: N/A Discussion on Current Name: Melbourne suburb,  once called Tunstall,  Thomas map 1840.",http://www.vaclang.org.au,"['Whitehorse City', 'Blackburn', 'Worship', 'Parish', 'Christian']",Blackburn
Boroondara City,Boroondara Parish,145.0676389,-37.8129167,It is thought that Boroondara is an Aboriginal word meaning shady place.,https://www.victorianplaces.com.au/boroondara,"['Boroondara City', 'Deepdene', 'Worship', 'Parish', 'Christian']",Deepdene
Greater Dandenong City,Dandenong Parish,145.19097219999998,-37.9715278,"'The town was called after the creek.  Writing of the creek, in 1837, Captain Lonsdale spelt the name 'Dan-y-nong.'  The first surveyor, in the 'forties,' wrote it as 'Tangenong.'",,"['Greater Dandenong City', 'Noble Park', 'Worship', 'Parish', 'Christian']",Noble Park
Greater Dandenong City,Eumemmerring Parish,145.2479167,-38.0220833,,,"['Greater Dandenong City', 'Hampton Park', 'Worship', 'Parish', 'Christian']",Hampton Park
Manningham City,Bulleen Parish,145.1529167,-37.7665278,"Traditional Name: Bulen-bulen Explanation: lyrebird Discussion on Current Name: Aboriginal encampment at Bolin (Robinson) [Bullen bullen = lyrebird],  Robinson jnl, 30/8/1840.",http://www.vaclang.org.au,"['Manningham City', 'Templestowe', 'Worship', 'Parish', 'Christian']",Templestowe
Manningham City,Warrandyte Parish,145.2529167,-37.76430560000001,"Traditional Name: Warrandyte Explanation: N/A Discussion on Current Name: township by Yarra River; in 1845 James Dawson n his pastoral stn after Aboriginal n; from 1865 - 1908, n of Anderson's Creek was used; Massola 1968: 51.",http://www.vaclang.org.au,"['Manningham City', 'Warranwood', 'Worship', 'Parish', 'Christian']",Warranwood
Knox City,Scoresby Parish,145.2823611,-37.866805600000006,,,"['Knox City', 'Boronia', 'Worship', 'Parish', 'Christian']",Boronia
Port Phillip City,Melbourne South Parish,144.9568056,-37.83625,,,"['Port Phillip City', 'South Melbourne', 'Worship', 'Parish', 'Christian']",South Melbourne
Brimbank City,Maribyrnong Parish,144.7776389,-37.7123611,,,"['Brimbank City', 'Delahey', 'Worship', 'Parish', 'Christian']",Delahey
Nillumbik Shire,Greensborough Parish,145.2118056,-37.630416700000005,,,"['Nillumbik Shire', 'Hurstbridge', 'Worship', 'Parish', 'Christian']",Hurstbridge
Nillumbik Shire,Nillumbik Parish,145.1851389,-37.696805600000005,"Reputedly an Aboriginal word 'nyilumbik' meaning 'no good', 'stupid' or 'red earth'.  An early settler name for the Diamond Creek area.  ",,"['Nillumbik Shire', 'Research', 'Worship', 'Parish', 'Christian']",Research
Nillumbik Shire,Queenstown Parish,145.3123611,-37.5968056,,,"['Nillumbik Shire', 'St Andrews', 'Worship', 'Parish', 'Christian']",St Andrews
Kingston City,Moorabbin Parish,145.0415278,-37.94125,"Traditional Name: Moorabbin Explanation: N/A Discussion on Current Name: SE Melbourne suburb and former municipality,  Parish, Co of Bourke,  once known as South Brighton,  Massola 1968: 35.",http://www.vaclang.org.au,"['Kingston City', 'Moorabbin', 'Worship', 'Parish', 'Christian']",Moorabbin
Kingston City,Mordialloc Parish,145.12069440000002,-37.95875,"Traditional Name: Murdayaluk Explanation: murda = low/short,  yaluk = river/creek Discussion on Current Name: Robinson noted Maj Frazer's stn at Mooddealloke, 1840,  Robinson jnl, 26/7/1840.",http://www.vaclang.org.au,"['Kingston City', 'Clayton South', 'Worship', 'Parish', 'Christian']",Clayton South
Yarra City,Melbourne North Parish,144.97930559999998,-37.7995833,,,"['Yarra City', 'Fitzroy', 'Worship', 'Parish', 'Christian']",Fitzroy
Monash City,Mulgrave Parish,145.1476389,-37.888194399999996,,,"['Monash City', 'Glen Waverley', 'Worship', 'Parish', 'Christian']",Glen Waverley
Wyndham City,Bulban Parish,144.5198611,-37.919861100000006,,,"['Wyndham City', 'Werribee', 'Worship', 'Parish', 'Christian']",Werribee
Wyndham City,Deutgam Parish,144.7281944,-37.92125,,,"['Wyndham City', 'Point Cook', 'Worship', 'Parish', 'Christian']",Point Cook
Wyndham City,Mambourin Parish,144.61125,-37.9126389,Traditional Name: Mambourin Explanation: n of a Wathawurrung clan head Discussion on Current Name: Blake 1977: 169.,http://www.vaclang.org.au,"['Wyndham City', 'Werribee', 'Worship', 'Parish', 'Christian']",Werribee
Wyndham City,Mouyong Parish,144.4801389,-37.8215278,"Traditional Name: Mouyong Explanation: N/A Discussion on Current Name: n of pastoral run,  Lands Dept 1865 map in Osborn 1973.",http://www.vaclang.org.au,"['Wyndham City', 'Quandong', 'Worship', 'Parish', 'Christian']",Quandong
Wyndham City,Tarneit Parish,144.67708330000002,-37.84625,Traditional Name: Tarneit Explanation: N/A Discussion on Current Name: district 5km from Werribee; n offormer SS; Blake 1977: 252.,http://www.vaclang.org.au,"['Wyndham City', 'Tarneit', 'Worship', 'Parish', 'Christian']",Tarneit
Wyndham City,Werribee Parish,144.5826389,-37.8434722,"'Backbone, spine.  The name was first applied to the river.  In 1824, Hume and Hovell called it the 'Arndell,' after Dr. Arndell, of Sydney.  It was variously described by Wedge, the surveyor, as the 'Peel' and the 'Weiribee.'",,"['Wyndham City', 'Manor Lakes', 'Worship', 'Parish', 'Christian']",Manor Lakes
Whittlesea City,Linton Parish,145.19375,-37.5345833,'Named after Mr. Linton of Linton Park. Gold was discovered upon his station.  The 'diggings' and the township took his name.',,"['Whittlesea City', 'Humevale', 'Worship', 'Parish', 'Christian']",Humevale
Whittlesea City,Merriang Parish,145.0073611,-37.4793056,"Traditional Name: Merriang Explanation: N/A Discussion on Current Name: township N of Melbourne nr Whittlesea,  Massola 1968: 34.",http://www.vaclang.org.au,"['Whittlesea City', 'Beveridge', 'Worship', 'Parish', 'Christian']",Beveridge
Whittlesea City,Morang Parish,145.0904167,-37.6356944,"Reputedly an Aboriginal word for 'sky' or 'very dark' ('morrang'), but note that Smyth's list was compiled for parts of Victoria well beyond the Plenty River valley.",,"['Whittlesea City', 'South Morang', 'Worship', 'Parish', 'Christian']",South Morang
Whittlesea City,Toorourrong Parish,145.1143056,-37.491805600000006,"In 1840, name of a pastoral station in the Plenty Range.  Reputedly an Aboriginal word for 'snake' or 'good grass'.  But also see R.B. Smyth, The Aborigines of Victoria, Vol.II, p.124 ('laughing jackass').",,"['Whittlesea City', 'Whittlesea', 'Worship', 'Parish', 'Christian']",Whittlesea
Whittlesea City,Wollert Parish,145.00125,-37.62430560000001,"Traditional Name: Walert Explanation: possum Discussion on Current Name: farming district; Parish, Co of Bourke; n of Charles Campbell's stn squatted fr 1840; Blake 1991",http://www.vaclang.org.au,"['Whittlesea City', 'Epping', 'Worship', 'Parish', 'Christian']",Epping
Whittlesea City,Yan Yean Parish,145.1023611,-37.5629167,"O'Callaghan writes: 'Name of a native chief who signed the Batman treaty in 1835.  John Batman wrote the name 'Yan Yan.'  It means bachelor, unmarried, boyish, young male.'",,"['Whittlesea City', 'Woodstock', 'Worship', 'Parish', 'Christian']",Woodstock
Hume City,Bollinda Parish,144.79986110000002,-37.5323611,,,"['Hume City', 'Wildwood', 'Worship', 'Parish', 'Christian']",Wildwood
Hume City,Bulla Bulla Parish,144.81152780000002,-37.60125,,,"['Hume City', 'Wildwood', 'Worship', 'Parish', 'Christian']",Wildwood
Hume City,Buttlejorrk Parish,144.68902780000002,-37.5356944,"Reputedly of Aboriginal origin, based on 'bukirn' meaning head band, and 'jork' meaning reeds i.e. a head band made of reeds.  ",,"['Hume City', 'Sunbury', 'Worship', 'Parish', 'Christian']",Sunbury
Hume City,Mickleham Parish,144.89708330000002,-37.5404167,,,"['Hume City', 'Mickleham', 'Worship', 'Parish', 'Christian']",Mickleham
Hume City,Tullamarine Parish,144.8456944,-37.6756944,"Traditional Name: Tullamarine Explanation: personal name Discussion on Current Name: Melbourne international airport; suburb of Melbourne; in 1837 George Langhorne informed surveyor Robert Hoddle that Tullamareena was a small Wurundjeri boy; n after a flower, according to Howitt poem (Blake 1977: 261); Howitt in Blake 1977: 261.",http://www.vaclang.org.au,"['Hume City', 'Melbourne Airport', 'Worship', 'Parish', 'Christian']",Melbourne Airport
Hume City,Will-Will-Rook Parish,144.94152780000002,-37.687361100000004,Name of Neil Campbell's pastoral station.  Reputedly an Aboriginal word for place of curlews.,,"['Hume City', 'Broadmeadows', 'Worship', 'Parish', 'Christian']",Broadmeadows
Hume City,Yuroke Parish,144.9095833,-37.6145833,,,"['Hume City', 'Greenvale', 'Worship', 'Parish', 'Christian']",Greenvale
Melton City,Derrimut Parish,144.75069440000001,-37.7793056,"Traditional Name: Derrimut Explanation: Yalukit willam clan leader in the 19th century Discussion on Current Name: also known as Laverton North (Melway 1982),  Parish, Co of Bourke, farming district, suburb of Melbourne, and according to Blake (1977: 81), original n for Deer Park,  also Mt Derrimut,  Blake 1977: 81,  Clark 1990a: 369.",http://www.vaclang.org.au,"['Melton City', 'Ravenhall', 'Worship', 'Parish', 'Christian']",Ravenhall
Melton City,Djerriwarrh Parish,144.5620833,-37.6765278,,,"['Melton City', 'Melton West', 'Worship', 'Parish', 'Christian']",Melton West
Melton City,Holden Parish,144.7079167,-37.61819439999999,"Three possible origins: (1) Named after Annie Holden, wife of George Evans (married 11 April 1843), who settled at Emu Bottom in 1836. (2) Named after Mr Holden, secretary to Sir Richard Bourke (see 'History Magazine', Vol.13, p.60). (3) Named after a locality NW of Bradford, Engalnd.",,"['Melton City', 'Diggers Rest', 'Worship', 'Parish', 'Christian']",Diggers Rest
Melton City,Kororoit Parish,144.64652780000003,-37.697083299999996,Reputedly from an Aboriginal word for 'male kangaroo'.,,"['Melton City', 'Bonnie Brook', 'Worship', 'Parish', 'Christian']",Bonnie Brook
Melton City,Mooradoranook Parish,144.5370833,-37.75069439999999,,,"['Melton City', 'Eynesbury', 'Worship', 'Parish', 'Christian']",Eynesbury
Melton City,Pywheitjorrk Parish,144.6384722,-37.769027799999996,,,"['Melton City', 'Mount Cottrell', 'Worship', 'Parish', 'Christian']",Mount Cottrell
Mitchell Shire,Bylands Parish,144.97347219999997,-37.3454167,"'Named after two places in England.  Byland, old, and Byland with Wass, Yorkshire.'",,"['Mitchell Shire', 'Wandong', 'Worship', 'Parish', 'Christian']",Wandong
Mitchell Shire,Clonbinane Parish,145.1295833,-37.3334722,,,"['Mitchell Shire', 'Clonbinane', 'Worship', 'Parish', 'Christian']",Clonbinane
Mitchell Shire,Derril Parish,145.20486110000002,-37.352638899999995,"Traditional Name: Derril Explanation: brown ochre Discussion on Current Name: also Terrel, in district of Rivers Loddon, Avoca, Richardson, Wimmera and Upper Hopkins, or NW Victoria (Smyth 1878),  Pascoe Papers 1999,  Blake 2001.",http://www.vaclang.org.au,"['Mitchell Shire', 'Clonbinane', 'Worship', 'Parish', 'Christian']",Clonbinane
Mitchell Shire,Forbes Parish,144.88763889999998,-37.31319439999999,Rev. James Forbes was the second Presbyterian clergyman to arrive in Melbourne.,,"['Mitchell Shire', 'Kilmore', 'Worship', 'Parish', 'Christian']",Kilmore
Mitchell Shire,Glenaroua Parish,144.9756944,-37.0993056,,,"['Mitchell Shire', 'Sugarloaf Creek', 'Worship', 'Parish', 'Christian']",Sugarloaf Creek
Mitchell Shire,Glenburnie Parish,145.0401389,-37.3015278,,,"['Mitchell Shire', 'Kilmore East', 'Worship', 'Parish', 'Christian']",Kilmore East
Mitchell Shire,Glenhope Parish,144.64125,-37.0715278,,,"['Mitchell Shire', 'Tooborac', 'Worship', 'Parish', 'Christian']",Tooborac
Mitchell Shire,Kobyboyn Parish,145.38763889999998,-37.043472200000004,"Highlands. Parish, locality. State school (1886-88, 1895 - 1920). Aboriginal (Taungurong): kobi, medicine man, and boyla, sorcerer (Les Blake). (The Kobyboyn Ranges* are south of Mount Bernard* and east of the Smith Range and Callen Range*.) See also Habbie's Howe.",,"['Mitchell Shire', 'Highlands', 'Worship', 'Parish', 'Christian']",Highlands
Mitchell Shire,Mangalore Parish,145.20625,-36.955138899999994,"The locality 'was once part of a pastoral station taken up, in 1838, by Colonel Joseph Anderson, for himself and for his brother, Lieutenant-General John Anderson.  The name 'Mangalore,' was that of the military station in India at which Lieutenant-General Anderson was then serving.'",,"['Mitchell Shire', 'Seymour', 'Worship', 'Parish', 'Christian']",Seymour
Mitchell Shire,Moormbool East Parish,144.9879167,-36.84625,,,"['Mitchell Shire', 'Puckapunyal', 'Worship', 'Parish', 'Christian']",Puckapunyal
Mitchell Shire,Moranding Parish,144.9343056,-37.2156944,Traditional name: Moraangtin.  'Hand',,"['Mitchell Shire', 'Willowmavin', 'Worship', 'Parish', 'Christian']",Willowmavin
Mitchell Shire,Northwood Parish,145.08625,-36.94986110000001,,,"['Mitchell Shire', 'Hilldene', 'Worship', 'Parish', 'Christian']",Hilldene
Mitchell Shire,Panyule Parish,144.8826389,-37.04375,,,"['Mitchell Shire', 'Tooborac', 'Worship', 'Parish', 'Christian']",Tooborac
Mitchell Shire,Puckapunyal Parish,144.9884722,-36.959861100000005,"Traditional Name: Puckapunyal Explanation: panyul = mountain Discussion on Current Name: township,  Parish, Co of Dalhousie,  creek,  Massola 1968: 42.",http://www.vaclang.org.au,"['Mitchell Shire', 'Puckapunyal', 'Worship', 'Parish', 'Christian']",Puckapunyal
Mitchell Shire,Pyalong Parish,144.8270833,-37.1445833,'Signifies two small waterholes'.  'The name was given by Mr. A. F. Mollison to his pastoral station in 1837.',,"['Mitchell Shire', 'Pyalong', 'Worship', 'Parish', 'Christian']",Pyalong
Mitchell Shire,Seymour Parish,145.1193056,-37.024305600000005,"Former shire (1871 - 1994); town*. Named by Major Sir Thomas Mitchell in 1843 after Lord Seymour, minister in Lord Melbourne's cabinet. Old French: Saint Maur[o].",,"['Mitchell Shire', 'Seymour', 'Worship', 'Parish', 'Christian']",Seymour
Mitchell Shire,Spring Plains Parish,144.62847219999998,-37.0118056,,,"['Mitchell Shire', 'Tooborac', 'Worship', 'Parish', 'Christian']",Tooborac
Mitchell Shire,Tallarook Parish,145.1951389,-37.0443056,"Traditional Name: Tal/arook Explanation: N/A Discussion on Current Name: Parish,CQof Anglesey township S of Seymour; also Mt Tallarook; Massola 1968: 46.",http://www.vaclang.org.au,"['Mitchell Shire', 'Whiteheads Creek', 'Worship', 'Parish', 'Christian']",Whiteheads Creek
Mitchell Shire,Tooborac Parish,144.7726389,-37.0415278,Traditional Name: Tourbouric Explanation: N/A Discussion on Current Name: rly stn on Wallan to Bendigo line; n originally applied to a large hill nr the 'Tourbouric' home station; Q'CaIlaghan 1918: 90.,http://www.vaclang.org.au,"['Mitchell Shire', 'Tooborac', 'Worship', 'Parish', 'Christian']",Tooborac
Mitchell Shire,Wallan Wallan Parish,145.06180559999999,-37.422638899999995,"Traditional name: Walla Walla. 'Much rain, a great flood.' 'Wallan-wallan,' 'round'.",,"['Mitchell Shire', 'Upper Plenty', 'Worship', 'Parish', 'Christian']",Upper Plenty
Mitchell Shire,Warrowitue Parish,144.87847219999998,-36.94986110000001,"Traditional Name: Warrowitur Explanation: a camping-ground Discussion on Current Name: Parish, Co of Dalhousie; Spieseke in Smyth 1878b: 209; Massola 1968: 52. ",http://www.vaclang.org.au,"['Mitchell Shire', 'Puckapunyal', 'Worship', 'Parish', 'Christian']",Puckapunyal
Mitchell Shire,Willowmavin Parish,144.92013889999998,-37.2759722,,,"['Mitchell Shire', 'Kilmore', 'Worship', 'Parish', 'Christian']",Kilmore
Mitchell Shire,Worrough Parish,145.28625,-37.05375,"Name of Thomas Brown's pastoral station in the 1840s. Possibly of Aboriginal origin but not listed in Clark and Heydon, Aboriginal Placenames of Victoria (2002).",,"['Mitchell Shire', 'Whiteheads Creek', 'Worship', 'Parish', 'Christian']",Whiteheads Creek
Glen Eira City,Prahran Parish,145.04097219999997,-37.8754167,"Traditional Name: Birr-arrung Explanation: mist,  land partially surrounded by water Discussion on Current Name: George Langhorne reported Pur-ra-ran, Purraran as n which was misspelt by Hoddle,  Langhorne in Cooper 1912: 7-8.",http://www.vaclang.org.au,"['Glen Eira City', 'Caulfield East', 'Worship', 'Parish', 'Christian']",Caulfield East
City of Melbourne,St Francis Church,144.9624226,-37.81188478,,,"['City of Melbourne', 'Melbourne City', 'Worship', 'Church', 'Christian']",Melbourne City
City of Melbourne,Wesley Church,144.96816819999998,-37.81015764,,,"['City of Melbourne', 'Melbourne City', 'Worship', 'Church', 'Christian']",Melbourne City
City of Melbourne,St Augustines Church,144.95486200000002,-37.81697414,,,"['City of Melbourne', 'Melbourne City', 'Worship', 'Church', 'Christian']",Melbourne City
City of Melbourne,St James Church,144.9524686,-37.81012812,,,"['City of Melbourne', 'West Melbourne', 'Worship', 'Church', 'Christian']",West Melbourne
City of Melbourne,St Mary's Anglican Church,144.9537615,-37.80316637,,,"['City of Melbourne', 'North Melbourne', 'Worship', 'Church', 'Christian']",North Melbourne
City of Melbourne,Romanian Orthodox,144.9669864,-37.80523073,,,"['City of Melbourne', 'Carlton', 'Worship']",Carlton
City of Melbourne,Welsh Presbyterian Church,144.9598733,-37.81044788,,,"['City of Melbourne', 'Melbourne City', 'Worship', 'Church', 'Christian']",Melbourne City
City of Melbourne,Church of Christ,144.9638892,-37.81045241,,,"['City of Melbourne', 'Melbourne City', 'Worship', 'Church', 'Christian']",Melbourne City
City of Melbourne,Scots Church,144.96855109999998,-37.81456878,,,"['City of Melbourne', 'Melbourne City', 'Worship', 'Church', 'Christian']",Melbourne City
City of Melbourne,St Michael's Uniting Church,144.969174,-37.81438513,,,"['City of Melbourne', 'Melbourne City', 'Worship', 'Church', 'Christian']",Melbourne City
City of Melbourne,Greek Orthodox Church,144.9782591,-37.80880647,,,"['City of Melbourne', 'East Melbourne', 'Worship', 'Church', 'Christian']",East Melbourne
City of Melbourne,St Peter's Eastern Hill,144.97525919999998,-37.80970867,,,"['City of Melbourne', 'East Melbourne', 'Worship']",East Melbourne
City of Melbourne,Lutheran Trinity Church,144.9757295,-37.81097571,,,"['City of Melbourne', 'East Melbourne', 'Worship', 'Church', 'Christian']",East Melbourne
City of Melbourne,Holy Trinity,144.98319730000003,-37.81406671,,,"['City of Melbourne', 'East Melbourne', 'Worship']",East Melbourne
City of Melbourne,St Johns Lutheran Church,144.96712109999999,-37.82093997,,,"['City of Melbourne', 'Southbank', 'Worship', 'Church', 'Christian']",Southbank
City of Melbourne,North Melbourne Uniting,144.9476715,-37.80355385,,,"['City of Melbourne', 'North Melbourne', 'Worship']",North Melbourne
City of Melbourne,Melbourne Unitarian Church,144.98466489999998,-37.81144878,,,"['City of Melbourne', 'East Melbourne', 'Worship', 'Church', 'Christian']",East Melbourne
City of Melbourne,All Nations Uniting Church,144.9689811,-37.79591553,,,"['City of Melbourne', 'Carlton', 'Worship', 'Church', 'Christian']",Carlton
City of Melbourne,Our Lady of Lebanon Church,144.9693347,-37.80257665,,,"['City of Melbourne', 'Carlton', 'Worship', 'Church', 'Christian']",Carlton
City of Melbourne,St Michaels,144.9453995,-37.79405127,,,"['City of Melbourne', 'North Melbourne', 'Worship']",North Melbourne
City of Melbourne,Ukranian Catholic Cathedral,144.9443135,-37.79630846,,,"['City of Melbourne', 'North Melbourne', 'Worship', 'Church', 'Christian']",North Melbourne
City of Melbourne,St Alban Anglican Church,144.94161450000001,-37.79421695,,,"['City of Melbourne', 'North Melbourne', 'Worship', 'Church', 'Christian']",North Melbourne
City of Melbourne,Christ Church Kensington,144.9272957,-37.79321095,,,"['City of Melbourne', 'Kensington', 'Worship', 'Church', 'Christian']",Kensington
City of Melbourne,Holy Rosary,144.92836210000002,-37.79480874,,,"['City of Melbourne', 'Kensington', 'Worship']",Kensington
City of Melbourne,Collins Street Baptist Church,144.9680725,-37.81470119,,,"['City of Melbourne', 'Melbourne City', 'Worship', 'Church', 'Christian']",Melbourne City
City of Melbourne,St Thomas Aquinas Church,144.9768091,-37.83530769,,,"['City of Melbourne', 'Melbourne City', 'Worship', 'Church', 'Christian']",Melbourne City
City of Stonnington,South Yarra Presbyterian Church,144.985627,-37.84074736,,,"['City of Stonnington', 'South Yarra', 'Worship', 'Church', 'Christian']",South Yarra
City of Melbourne,The Parish of Christ Church South Yarra,144.9860094,-37.83862705,,,"['City of Melbourne', 'South Yarra', 'Worship', 'Parish', 'Christian', 'Church', 'Christian']",South Yarra
City of Melbourne,East Melbourne Synagogue,144.9742219,-37.80911373,,,"['City of Melbourne', 'East Melbourne', 'Worship', 'Synagogue', 'Jew']",East Melbourne
City of Melbourne,St Patricks Cathedral,144.9759015,-37.8101141,,,"['City of Melbourne', 'East Melbourne', 'Worship', 'Church', 'Christian']",East Melbourne
City of Melbourne,St Pauls Cathedral,144.9676816,-37.8169549,,,"['City of Melbourne', 'Melbourne City', 'Worship', 'Church', 'Christian']",Melbourne City
